{
  "type": "FeatureCollection",
  "features": [
    {
      "type": "Feature",
      "geometry": {
        "type": "MultiPolygon",
        "coordinates": [
          [
            [
              [
                127.4551683,
                36.6232512
              ],
              [
                127.4558006,
                36.6229466
              ],
              [
                127.4561503,
                36.6227948
              ],
              [
                127.4563413,
                36.6226433
              ],
              [
                127.4564796,
                36.6225972
              ],
              [
                127.4564919,
                36.6226141
              ],
              [
                127.456585,
                36.6227421
              ],
              [
                127.4567892,
                36.6228738
              ],
              [
                127.4570066,
                36.6228738
              ],
              [
                127.457224,
                36.622966
              ],
              [
                127.4573162,
                36.6231702
              ],
              [
                127.4574611,
                36.6233283
              ],
              [
                127.4575797,
                36.6235984
              ],
              [
                127.4579111,
                36.623834
              ],
              [
                127.4583042,
                36.623717
              ],
              [
                127.4584492,
                36.6237301
              ],
              [
                127.4585743,
                36.6238816
              ],
              [
                127.4586331,
                36.6239326
              ],
              [
                127.458841,
                36.6238148
              ],
              [
                127.458976,
                36.6237466
              ],
              [
                127.459112,
                36.6237333
              ],
              [
                127.4592345,
                36.623721
              ],
              [
                127.4593717,
                36.6236963
              ],
              [
                127.4594523,
                36.6236996
              ],
              [
                127.4595195,
                36.6237309
              ],
              [
                127.4596759,
                36.6237331
              ],
              [
                127.4598394,
                36.6236717
              ],
              [
                127.4599328,
                36.6235735
              ],
              [
                127.460473,
                36.623664
              ],
              [
                127.4605338,
                36.6239507
              ],
              [
                127.4608857,
                36.624377
              ],
              [
                127.4609328,
                36.6244983
              ],
              [
                127.4611931,
                36.62459
              ],
              [
                127.4612893,
                36.62469
              ],
              [
                127.4615034,
                36.62473
              ],
              [
                127.4615992,
                36.6247569
              ],
              [
                127.4616068,
                36.624759
              ],
              [
                127.4616778,
                36.6247797
              ],
              [
                127.4622631,
                36.6246509
              ],
              [
                127.4625037,
                36.624614
              ],
              [
                127.4630009,
                36.6245953
              ],
              [
                127.4634806,
                36.6246225
              ],
              [
                127.4634804,
                36.6249012
              ],
              [
                127.4627317,
                36.6269406
              ],
              [
                127.4620275,
                36.629026
              ],
              [
                127.4616241,
                36.6301042
              ],
              [
                127.4613934,
                36.6307207
              ],
              [
                127.4610113,
                36.6307944
              ],
              [
                127.4608011,
                36.6308465
              ],
              [
                127.4605472,
                36.6309447
              ],
              [
                127.4603934,
                36.6310328
              ],
              [
                127.4601598,
                36.6311542
              ],
              [
                127.4599419,
                36.6314263
              ],
              [
                127.4594958,
                36.6311952
              ],
              [
                127.4591924,
                36.6312299
              ],
              [
                127.4590624,
                36.6313069
              ],
              [
                127.4589783,
                36.631389
              ],
              [
                127.4589186,
                36.6316329
              ],
              [
                127.4589359,
                36.6316798
              ],
              [
                127.4592206,
                36.6319461
              ],
              [
                127.4591221,
                36.6319988
              ],
              [
                127.4587193,
                36.6321228
              ],
              [
                127.4585158,
                36.6321534
              ],
              [
                127.4583716,
                36.6321127
              ],
              [
                127.4581372,
                36.631967
              ],
              [
                127.4578922,
                36.6317886
              ],
              [
                127.4578127,
                36.6318185
              ],
              [
                127.4576859,
                36.6318377
              ],
              [
                127.4575557,
                36.6317902
              ],
              [
                127.4574309,
                36.6317497
              ],
              [
                127.4572216,
                36.6316133
              ],
              [
                127.4571103,
                36.6315593
              ],
              [
                127.4570932,
                36.6315659
              ],
              [
                127.4570592,
                36.631626
              ],
              [
                127.4568746,
                36.6318339
              ],
              [
                127.4561778,
                36.6310247
              ],
              [
                127.4560432,
                36.6310811
              ],
              [
                127.4558994,
                36.6311648
              ],
              [
                127.4557702,
                36.6312816
              ],
              [
                127.4555918,
                36.6315004
              ],
              [
                127.4555431,
                36.6317154
              ],
              [
                127.4556984,
                36.6318637
              ],
              [
                127.4559474,
                36.6319574
              ],
              [
                127.4560942,
                36.6321497
              ],
              [
                127.4560179,
                36.6322971
              ],
              [
                127.4562845,
                36.6324385
              ],
              [
                127.4563405,
                36.6328652
              ],
              [
                127.45716,
                36.6331282
              ],
              [
                127.4572456,
                36.6329845
              ],
              [
                127.4575698,
                36.6331731
              ],
              [
                127.4578728,
                36.6333444
              ],
              [
                127.458246,
                36.6335815
              ],
              [
                127.4583915,
                36.6336639
              ],
              [
                127.4583205,
                36.6337319
              ],
              [
                127.4575652,
                36.633575
              ],
              [
                127.4568777,
                36.6334152
              ],
              [
                127.4563431,
                36.6332431
              ],
              [
                127.4563119,
                36.6331467
              ],
              [
                127.4555605,
                36.632863
              ],
              [
                127.4553835,
                36.6327908
              ],
              [
                127.4549021,
                36.6326462
              ],
              [
                127.4543751,
                36.6325276
              ],
              [
                127.4538547,
                36.6324881
              ],
              [
                127.4533294,
                36.6325007
              ],
              [
                127.4530891,
                36.6324796
              ],
              [
                127.4526277,
                36.6321262
              ],
              [
                127.4524581,
                36.6319776
              ],
              [
                127.4517253,
                36.6313357
              ],
              [
                127.4507505,
                36.6304794
              ],
              [
                127.4507229,
                36.6304428
              ],
              [
                127.450487,
                36.6301303
              ],
              [
                127.450296,
                36.6298141
              ],
              [
                127.4501642,
                36.6294387
              ],
              [
                127.4501115,
                36.6292015
              ],
              [
                127.4501181,
                36.6289315
              ],
              [
                127.450072,
                36.6284966
              ],
              [
                127.4500539,
                36.6278239
              ],
              [
                127.4499818,
                36.627052
              ],
              [
                127.4499832,
                36.6268983
              ],
              [
                127.4500713,
                36.6268415
              ],
              [
                127.4501317,
                36.62681
              ],
              [
                127.4502434,
                36.6267875
              ],
              [
                127.4503493,
                36.6267896
              ],
              [
                127.4504115,
                36.6267969
              ],
              [
                127.4505427,
                36.6267942
              ],
              [
                127.4506677,
                36.6267999
              ],
              [
                127.4508347,
                36.6268054
              ],
              [
                127.4509254,
                36.6268118
              ],
              [
                127.4510077,
                36.6268199
              ],
              [
                127.4511674,
                36.6268233
              ],
              [
                127.4511464,
                36.6268975
              ],
              [
                127.451157,
                36.6269723
              ],
              [
                127.4512307,
                36.6270882
              ],
              [
                127.4513572,
                36.6271409
              ],
              [
                127.4515838,
                36.6272094
              ],
              [
                127.4517519,
                36.6271656
              ],
              [
                127.4518526,
                36.6271409
              ],
              [
                127.4519749,
                36.626959
              ],
              [
                127.4520216,
                36.6268439
              ],
              [
                127.4521271,
                36.6267413
              ],
              [
                127.4522345,
                36.62671
              ],
              [
                127.4524477,
                36.6267317
              ],
              [
                127.4525216,
                36.6266706
              ],
              [
                127.4525093,
                36.626591
              ],
              [
                127.4528765,
                36.6265814
              ],
              [
                127.4528448,
                36.6262622
              ],
              [
                127.4531009,
                36.626281
              ],
              [
                127.4533842,
                36.6262023
              ],
              [
                127.4533981,
                36.6261372
              ],
              [
                127.4535362,
                36.6257482
              ],
              [
                127.453605,
                36.6255113
              ],
              [
                127.4536286,
                36.6254278
              ],
              [
                127.4531632,
                36.6250707
              ],
              [
                127.4538485,
                36.6244846
              ],
              [
                127.4538551,
                36.6239275
              ],
              [
                127.4537719,
                36.6234665
              ],
              [
                127.4535478,
                36.623481
              ],
              [
                127.4535826,
                36.6233596
              ],
              [
                127.453572,
                36.6231612
              ],
              [
                127.4536658,
                36.6231209
              ],
              [
                127.4538363,
                36.6231404
              ],
              [
                127.453928,
                36.6231932
              ],
              [
                127.4541032,
                36.6233199
              ],
              [
                127.4542268,
                36.6233444
              ],
              [
                127.4546035,
                36.6233353
              ],
              [
                127.4551683,
                36.6232512
              ]
            ]
          ]
        ]
      },
      "properties": {
        "name": "충북대학교",
        "name_en": "Chungbuk National University",
        "osm_type": "relation",
        "osm_id": 6705106,
        "source": "OpenStreetMap",
        "license": "ODbL 1.0",
        "attribution": "© OpenStreetMap contributors",
        "fetched_at": "2026-09-22T17:51:54.818398+00:00"
      }
    }
  ]
}
